COSMOS 2496 (RODNIK-S *)
1 39761U 14028A   26117.55086369  .00000033  00000+0  16697-3 0  9997
2 39761  82.4437 140.4501 0019818 185.7328 174.3528 12.42876286541222
COSMOS 2497 (RODNIK-S *)
1 39762U 14028B   26117.52678446 -.00000025  00000+0 -25188-3 0  9996
2 39762  82.4487 142.1354 0020498 180.7873 179.3177 12.42891873541223
COSMOS 2498 (RODNIK-S *)
1 39763U 14028C   26117.50790110 -.00000032  00000+0 -29936-3 0  9991
2 39763  82.4446 140.6563 0021214 180.6467 179.4589 12.42978608541252
COSMOS 2499 (RS47)      
1 39765U 14028E   26117.50923758  .00000035  00000+0  83594-4 0  9991
2 39765  82.4461 286.6294 0232511 120.5238 241.9040 12.82902383558522
HODOYOSHI-4             
1 40011U 14033B   26117.53471005  .00001701  00000+0  18993-3 0  9990
2 40011  97.5462 304.8059 0025066 112.2418 248.1462 14.88002045641277
UNISAT-6                
1 40012U 14033C   26117.43299455  .00004006  00000+0  43546-3 0  9990
2 40012  97.7811 271.0672 0044198 234.6009 125.1075 14.87938896638615
DEIMOS-2                
1 40013U 14033D   26117.47049225  .00001934  00000+0  18850-3 0  9990
2 40013  97.5900 353.7267 0002271 101.9911 258.1563 14.93579871630156
BUGSAT-1 (TITA)         
1 40014U 14033E   26117.51992140  .00007236  00000+0  38692-3 0  9996
2 40014  98.0408 207.1328 0028018 356.6588   3.4451 15.15072805648169
SAUDISAT 4              
1 40016U 14033G   26117.39507328  .00000831  00000+0  11644-3 0  9996
2 40016  97.7511 265.3082 0043642 237.6720 122.0263 14.79467541638567
APRIZESAT 9             
1 40018U 14033J   26117.36905323  .00000582  00000+0  92930-4 0  9993
2 40018  97.8981 251.8322 0066245   4.9325 355.2522 14.74156311636075
BRITE-CA1 (TORONTO)     
1 40020U 14033L   26117.35018389  .00001111  00000+0  17382-3 0  9998
2 40020  97.9659 247.2403 0080047  79.9536 281.0691 14.72600337634736
DUCHIFAT-1              
1 40021U 14033M   26117.08889656  .00070643  00000+0  10062-2 0  9995
2 40021  98.0538 169.4491 0004294 231.1866 128.9004 15.56089814647785
NANOSATC-BR1            
1 40024U 14033Q   26117.01707883  .00018461  00000+0  64118-3 0  9994
2 40024  98.0774 144.9289 0003621  33.2067 326.9398 15.29820947646156
QB50P1                  
1 40025U 14033R   26116.99294189  .00009377  00000+0  47164-3 0  9999
2 40025  98.0988 124.5794 0010100  50.0262 310.1856 15.17436151645265
DTUSAT-2                
1 40030U 14033W   26117.23786720  .00009344  00000+0  51318-3 0  9990
2 40030  98.0866 111.7608 0009485  57.4291 302.7853 15.14328162644975
QB50P2                  
1 40032U 14033Y   26117.23704022  .00008805  00000+0  48194-3 0  9996
2 40032  98.0754 110.9760 0007353   4.5092 355.6203 15.14485029644957
