[{"OBJECT_NAME":"COSMOS 2496 (RODNIK-S 10)","OBJECT_ID":"2014-028A","EPOCH":"2026-04-27T13:13:14.622816","MEAN_MOTION":12.42876286,"ECCENTRICITY":0.0019818,"INCLINATION":82.4437,"RA_OF_ASC_NODE":140.4501,"ARG_OF_PERICENTER":185.7328,"MEAN_ANOMALY":174.3528,"EPHEMERIS_TYPE":0,"CLASSIFICATION_TYPE":"U","NORAD_CAT_ID":39761,"ELEMENT_SET_NO":999,"REV_AT_EPOCH":54122,"BSTAR":0.00016697,"MEAN_MOTION_DOT":3.3e-7,"MEAN_MOTION_DDOT":0},{"OBJECT_NAME":"COSMOS 2497 (RODNIK-S 11)","OBJECT_ID":"2014-028B","EPOCH":"2026-04-27T12:38:34.177344","MEAN_MOTION":12.42891873,"ECCENTRICITY":0.0020498,"INCLINATION":82.4487,"RA_OF_ASC_NODE":142.1354,"ARG_OF_PERICENTER":180.7873,"MEAN_ANOMALY":179.3177,"EPHEMERIS_TYPE":0,"CLASSIFICATION_TYPE":"U","NORAD_CAT_ID":39762,"ELEMENT_SET_NO":999,"REV_AT_EPOCH":54122,"BSTAR":-0.00025188,"MEAN_MOTION_DOT":-2.5e-7,"MEAN_MOTION_DDOT":0},{"OBJECT_NAME":"COSMOS 2498 (RODNIK-S 12)","OBJECT_ID":"2014-028C","EPOCH":"2026-04-27T12:11:22.655040","MEAN_MOTION":12.42978608,"ECCENTRICITY":0.0021214,"INCLINATION":82.4446,"RA_OF_ASC_NODE":140.6563,"ARG_OF_PERICENTER":180.6467,"MEAN_ANOMALY":179.4589,"EPHEMERIS_TYPE":0,"CLASSIFICATION_TYPE":"U","NORAD_CAT_ID":39763,"ELEMENT_SET_NO":999,"REV_AT_EPOCH":54125,"BSTAR":-0.00029936,"MEAN_MOTION_DOT":-3.2e-7,"MEAN_MOTION_DDOT":0},{"OBJECT_NAME":"COSMOS 2499 (RS47)","OBJECT_ID":"2014-028E","EPOCH":"2026-04-27T12:13:18.126912","MEAN_MOTION":12.82902383,"ECCENTRICITY":0.0232511,"INCLINATION":82.4461,"RA_OF_ASC_NODE":286.6294,"ARG_OF_PERICENTER":120.5238,"MEAN_ANOMALY":241.904,"EPHEMERIS_TYPE":0,"CLASSIFICATION_TYPE":"U","NORAD_CAT_ID":39765,"ELEMENT_SET_NO":999,"REV_AT_EPOCH":55852,"BSTAR":8.3594e-5,"MEAN_MOTION_DOT":3.5e-7,"MEAN_MOTION_DDOT":0},{"OBJECT_NAME":"HODOYOSHI-4","OBJECT_ID":"2014-033B","EPOCH":"2026-04-27T12:49:58.948320","MEAN_MOTION":14.88002045,"ECCENTRICITY":0.0025066,"INCLINATION":97.5462,"RA_OF_ASC_NODE":304.8059,"ARG_OF_PERICENTER":112.2418,"MEAN_ANOMALY":248.1462,"EPHEMERIS_TYPE":0,"CLASSIFICATION_TYPE":"U","NORAD_CAT_ID":40011,"ELEMENT_SET_NO":999,"REV_AT_EPOCH":64127,"BSTAR":0.00018993,"MEAN_MOTION_DOT":1.701e-5,"MEAN_MOTION_DDOT":0},{"OBJECT_NAME":"UNISAT-6","OBJECT_ID":"2014-033C","EPOCH":"2026-04-27T10:23:30.729120","MEAN_MOTION":14.87938896,"ECCENTRICITY":0.0044198,"INCLINATION":97.7811,"RA_OF_ASC_NODE":271.0672,"ARG_OF_PERICENTER":234.6009,"MEAN_ANOMALY":125.1075,"EPHEMERIS_TYPE":0,"CLASSIFICATION_TYPE":"U","NORAD_CAT_ID":40012,"ELEMENT_SET_NO":999,"REV_AT_EPOCH":63861,"BSTAR":0.00043546,"MEAN_MOTION_DOT":4.006e-5,"MEAN_MOTION_DDOT":0},{"OBJECT_NAME":"DEIMOS-2","OBJECT_ID":"2014-033D","EPOCH":"2026-04-27T11:17:30.530400","MEAN_MOTION":14.93579871,"ECCENTRICITY":0.0002271,"INCLINATION":97.59,"RA_OF_ASC_NODE":353.7267,"ARG_OF_PERICENTER":101.9911,"MEAN_ANOMALY":258.1563,"EPHEMERIS_TYPE":0,"CLASSIFICATION_TYPE":"U","NORAD_CAT_ID":40013,"ELEMENT_SET_NO":999,"REV_AT_EPOCH":63015,"BSTAR":0.0001885,"MEAN_MOTION_DOT":1.934e-5,"MEAN_MOTION_DDOT":0},{"OBJECT_NAME":"BUGSAT-1 (TITA)","OBJECT_ID":"2014-033E","EPOCH":"2026-04-27T12:28:41.208960","MEAN_MOTION":15.15072805,"ECCENTRICITY":0.0028018,"INCLINATION":98.0408,"RA_OF_ASC_NODE":207.1328,"ARG_OF_PERICENTER":356.6588,"MEAN_ANOMALY":3.4451,"EPHEMERIS_TYPE":0,"CLASSIFICATION_TYPE":"U","NORAD_CAT_ID":40014,"ELEMENT_SET_NO":999,"REV_AT_EPOCH":64816,"BSTAR":0.00038692,"MEAN_MOTION_DOT":7.236e-5,"MEAN_MOTION_DDOT":0},{"OBJECT_NAME":"SAUDISAT 4","OBJECT_ID":"2014-033G","EPOCH":"2026-04-27T09:28:54.331392","MEAN_MOTION":14.79467541,"ECCENTRICITY":0.0043642,"INCLINATION":97.7511,"RA_OF_ASC_NODE":265.3082,"ARG_OF_PERICENTER":237.672,"MEAN_ANOMALY":122.0263,"EPHEMERIS_TYPE":0,"CLASSIFICATION_TYPE":"U","NORAD_CAT_ID":40016,"ELEMENT_SET_NO":999,"REV_AT_EPOCH":63856,"BSTAR":0.00011644,"MEAN_MOTION_DOT":8.31e-6,"MEAN_MOTION_DDOT":0},{"OBJECT_NAME":"APRIZESAT 9","OBJECT_ID":"2014-033J","EPOCH":"2026-04-27T08:51:26.199072","MEAN_MOTION":14.74156311,"ECCENTRICITY":0.0066245,"INCLINATION":97.8981,"RA_OF_ASC_NODE":251.8322,"ARG_OF_PERICENTER":4.9325,"MEAN_ANOMALY":355.2522,"EPHEMERIS_TYPE":0,"CLASSIFICATION_TYPE":"U","NORAD_CAT_ID":40018,"ELEMENT_SET_NO":999,"REV_AT_EPOCH":63607,"BSTAR":9.293e-5,"MEAN_MOTION_DOT":5.82e-6,"MEAN_MOTION_DDOT":0},{"OBJECT_NAME":"BRITE-CA1 (TORONTO)","OBJECT_ID":"2014-033L","EPOCH":"2026-04-27T08:24:15.888096","MEAN_MOTION":14.72600337,"ECCENTRICITY":0.0080047,"INCLINATION":97.9659,"RA_OF_ASC_NODE":247.2403,"ARG_OF_PERICENTER":79.9536,"MEAN_ANOMALY":281.0691,"EPHEMERIS_TYPE":0,"CLASSIFICATION_TYPE":"U","NORAD_CAT_ID":40020,"ELEMENT_SET_NO":999,"REV_AT_EPOCH":63473,"BSTAR":0.00017382,"MEAN_MOTION_DOT":1.111e-5,"MEAN_MOTION_DDOT":0},{"OBJECT_NAME":"DUCHIFAT-1","OBJECT_ID":"2014-033M","EPOCH":"2026-04-27T02:08:00.662784","MEAN_MOTION":15.56089814,"ECCENTRICITY":0.00042947,"INCLINATION":98.0538,"RA_OF_ASC_NODE":169.4491,"ARG_OF_PERICENTER":231.1866,"MEAN_ANOMALY":128.9004,"EPHEMERIS_TYPE":0,"CLASSIFICATION_TYPE":"U","NORAD_CAT_ID":40021,"ELEMENT_SET_NO":999,"REV_AT_EPOCH":64778,"BSTAR":0.0010062486,"MEAN_MOTION_DOT":0.00070643,"MEAN_MOTION_DDOT":0},{"OBJECT_NAME":"NANOSATC-BR1","OBJECT_ID":"2014-033Q","EPOCH":"2026-04-27T00:24:35.610912","MEAN_MOTION":15.29820947,"ECCENTRICITY":0.00036217,"INCLINATION":98.0774,"RA_OF_ASC_NODE":144.9289,"ARG_OF_PERICENTER":33.2067,"MEAN_ANOMALY":326.9398,"EPHEMERIS_TYPE":0,"CLASSIFICATION_TYPE":"U","NORAD_CAT_ID":40024,"ELEMENT_SET_NO":999,"REV_AT_EPOCH":64615,"BSTAR":0.000641184,"MEAN_MOTION_DOT":0.00018461,"MEAN_MOTION_DDOT":0},{"OBJECT_NAME":"QB50P1","OBJECT_ID":"2014-033R","EPOCH":"2026-04-26T23:49:50.179296","MEAN_MOTION":15.17436151,"ECCENTRICITY":0.00101004,"INCLINATION":98.0988,"RA_OF_ASC_NODE":124.5794,"ARG_OF_PERICENTER":50.0262,"MEAN_ANOMALY":310.1856,"EPHEMERIS_TYPE":0,"CLASSIFICATION_TYPE":"U","NORAD_CAT_ID":40025,"ELEMENT_SET_NO":999,"REV_AT_EPOCH":64526,"BSTAR":0.00047163786,"MEAN_MOTION_DOT":9.377e-5,"MEAN_MOTION_DDOT":0},{"OBJECT_NAME":"DTUSAT-2","OBJECT_ID":"2014-033W","EPOCH":"2026-04-27T05:42:31.726080","MEAN_MOTION":15.14328162,"ECCENTRICITY":0.00094851,"INCLINATION":98.0866,"RA_OF_ASC_NODE":111.7608,"ARG_OF_PERICENTER":57.4291,"MEAN_ANOMALY":302.7853,"EPHEMERIS_TYPE":0,"CLASSIFICATION_TYPE":"U","NORAD_CAT_ID":40030,"ELEMENT_SET_NO":999,"REV_AT_EPOCH":64497,"BSTAR":0.0005131783,"MEAN_MOTION_DOT":9.344e-5,"MEAN_MOTION_DDOT":0},{"OBJECT_NAME":"QB50P2","OBJECT_ID":"2014-033Y","EPOCH":"2026-04-27T05:41:20.275008","MEAN_MOTION":15.14485029,"ECCENTRICITY":0.0007353,"INCLINATION":98.0754,"RA_OF_ASC_NODE":110.976,"ARG_OF_PERICENTER":4.5092,"MEAN_ANOMALY":355.6203,"EPHEMERIS_TYPE":0,"CLASSIFICATION_TYPE":"U","NORAD_CAT_ID":40032,"ELEMENT_SET_NO":999,"REV_AT_EPOCH":64495,"BSTAR":0.00048194,"MEAN_MOTION_DOT":8.805e-5,"MEAN_MOTION_DDOT":0}]
